{
    "links": {
        "self": "http://www.neowsapp.com/rest/v1/neo/3802450?api_key=iIulBulltgU6a56xZRHN4H3l9WmuAYTsLGpBGhQ2"
    },
    "id": "3802450",
    "neo_reference_id": "3802450",
    "name": "(2018 GH2)",
    "designation": "2018 GH2",
    "nasa_jpl_url": "http://ssd.jpl.nasa.gov/sbdb.cgi?sstr=3802450",
    "absolute_magnitude_h": 26.0,
    "estimated_diameter": {
        "kilometers": {
            "estimated_diameter_min": 0.0167708462,
            "estimated_diameter_max": 0.0375007522
        },
        "meters": {
            "estimated_diameter_min": 16.7708462163,
            "estimated_diameter_max": 37.5007521798
        },
        "miles": {
            "estimated_diameter_min": 0.0104209175,
            "estimated_diameter_max": 0.0233018799
        },
        "feet": {
            "estimated_diameter_min": 55.0224631002,
            "estimated_diameter_max": 123.0339677816
        }
    },
    "is_potentially_hazardous_asteroid": false,
    "close_approach_data": [
        {
            "close_approach_date": "2018-04-14",
            "close_approach_date_full": "2018-Apr-14 22:42",
            "epoch_date_close_approach": 1523745720000,
            "relative_velocity": {
                "kilometers_per_second": "7.0980911978",
                "kilometers_per_hour": "25553.1283120695",
                "miles_per_hour": "15877.7202003523"
            },
            "miss_distance": {
                "astronomical": "0.0364934431",
                "lunar": "14.1959493659",
                "kilometers": "5459341.356726197",
                "miles": "3392277.4170756386"
            },
            "orbiting_body": "Earth"
        }
    ],
    "orbital_data": {
        "orbit_id": "6",
        "orbit_determination_date": "2018-05-13 06:25:06",
        "first_observation_date": "2018-04-11",
        "last_observation_date": "2018-04-25",
        "data_arc_in_days": 14,
        "observations_used": 37,
        "orbit_uncertainty": "7",
        "minimum_orbit_intersection": ".0228237",
        "jupiter_tisserand_invariant": "4.202",
        "epoch_osculation": "2459000.5",
        "eccentricity": ".3783913998382878",
        "semi_major_axis": "1.639617273858405",
        "inclination": "8.334817421428738",
        "ascending_node_longitude": "20.49797735020509",
        "orbital_period": "766.8530593141593",
        "perihelion_distance": "1.019200198404085",
        "perihelion_argument": "167.5963797739685",
        "aphelion_distance": "2.260034349312724",
        "perihelion_time": "2458976.575591686338",
        "mean_anomaly": "11.23133941803811",
        "mean_motion": ".4694510840472732",
        "equinox": "J2000",
        "orbit_class": {
            "orbit_class_type": "AMO",
            "orbit_class_description": "Near-Earth asteroid orbits similar to that of 1221 Amor",
            "orbit_class_range": "1.017 AU < q (perihelion) < 1.3 AU"
        }
    },
    "is_sentry_object": false
}